ICEYE-X53               
1 64584U 25135BJ  26201.29192819  .00001411  00000+0  11555-3 0  9991
2 64584  97.7356 317.9266 0002144 164.1817 195.9474 15.00907502 59045
ICEYE-X65               
1 66300U 25248H   26200.74441669  .00001460  00000+0  10949-3 0  9993
2 66300  45.4068 322.9763 0005910 222.0313 138.0116 15.07944530 40433
ICEYE-X66               
1 66301U 25248J   26200.40737153  .00001861  00000+0  13082-3 0  9999
2 66301  45.4024 323.7855 0005595 216.6928 143.3571 15.09194385 40371
ICEYE-X67               
1 66302U 25248K   26201.02785592  .00001635  00000+0  11690-3 0  9991
2 66302  45.4072 320.0971 0007046 220.1748 139.8613 15.09177741 40483
ICEYE-X58               
1 66751U 25276CP  26201.09372325  .00001520  00000+0  79534-4 0  9998
2 66751  97.4193 273.8715 0002654 192.9707 167.1459 15.17322401 35406
ICEYE-X59               
1 66752U 25276CQ  26201.14638412  .00002708  00000+0  21784-3 0  9999
2 66752  97.4401 271.0358 0001270 130.9521 229.1814 15.00779782 35214
ICEYE-X60               
1 66753U 25276CR  26200.76990424  .00001909  00000+0  11913-3 0  9996
2 66753  97.4203 272.4701 0000985 344.1732  15.9467 15.10668296 35287
ICEYE-X61               
1 66754U 25276CS  26201.10770596  .00001658  00000+0  83366-4 0  9995
2 66754  97.4188 273.9841 0002548 193.6890 166.4276 15.18625360 35418
ICEYE-X62               
1 66755U 25276CT  26201.12856928  .00002476  00000+0  15548-3 0  9997
2 66755  97.4182 272.3058 0001150 207.0063 153.1107 15.10174734 35306
ICEYE-X63               
1 67372U 26004K   26200.95762137  .00000460  00000+0  55589-4 0  9992
2 67372  97.8016 199.0873 0005098  39.4699 320.6888 14.88353839 28172
ICEYE-X64               
1 67373U 26004L   26201.27646853  .00000662  00000+0  78018-4 0  9991
2 67373  97.8031 199.3184 0006946  40.0552 320.1175 14.87994242 28214
ICEYE-X71               
1 68494U 26067CG  26200.86413058  .00115397  00000+0  11312-1 0  9991
2 68494  97.7624 158.5977 0000715 301.1917  58.9231 14.91628445 16598
ICEYE-X73               
1 68496U 26067CJ  26200.88831171  .00001320  00000+0  13457-3 0  9999
2 68496  97.7625 158.7150 0001930 140.9134 219.2225 14.92360147 16606
ICEYE-X75               
1 68497U 26067CK  26200.89335504  .00000708  00000+0  75059-4 0  9996
2 68497  97.7608 158.6847 0001822 137.4732 222.6628 14.92179146 16607
ICEYE-X74               
1 68500U 26067CN  26201.19685290  .00001100  00000+0  11461-3 0  9998
2 68500  97.7635 158.9401 0000385 303.0152  57.1030 14.91806046 16648
ICEYE-X76               
1 68502U 26067CQ  26200.85751561  .00000339  00000+0  39192-4 0  9992
2 68502  97.7642 158.6239 0000404 253.2367 106.8808 14.91755921 16594
