{"fetched_at":"2026-07-20T18:29:28.020Z","source":"https://celestrak.org/NORAD/elements/gp.php?NAME=ICEYE&FORMAT=JSON","constellation":"iceye","records":[{"OBJECT_NAME":"ICEYE-X53","OBJECT_ID":"2025-135BJ","EPOCH":"2026-07-20T07:00:22.595616","CLASSIFICATION_TYPE":"U","MEAN_MOTION":15.00907502,"ECCENTRICITY":0.00021443,"INCLINATION":97.7356,"RA_OF_ASC_NODE":317.9266,"ARG_OF_PERICENTER":164.1817,"MEAN_ANOMALY":195.9474,"EPHEMERIS_TYPE":0,"NORAD_CAT_ID":64584,"ELEMENT_SET_NO":999,"REV_AT_EPOCH":5904,"BSTAR":0.00011555433,"MEAN_MOTION_DOT":0.00001411,"MEAN_MOTION_DDOT":0},{"OBJECT_NAME":"ICEYE-X65","OBJECT_ID":"2025-248H","EPOCH":"2026-07-19T17:51:57.602016","CLASSIFICATION_TYPE":"U","MEAN_MOTION":15.0794453,"ECCENTRICITY":0.00059102,"INCLINATION":45.4068,"RA_OF_ASC_NODE":322.9763,"ARG_OF_PERICENTER":222.0313,"MEAN_ANOMALY":138.0116,"EPHEMERIS_TYPE":0,"NORAD_CAT_ID":66300,"ELEMENT_SET_NO":999,"REV_AT_EPOCH":4043,"BSTAR":0.00010948806,"MEAN_MOTION_DOT":0.0000146,"MEAN_MOTION_DDOT":0},{"OBJECT_NAME":"ICEYE-X66","OBJECT_ID":"2025-248J","EPOCH":"2026-07-19T09:46:36.900192","CLASSIFICATION_TYPE":"U","MEAN_MOTION":15.09194385,"ECCENTRICITY":0.00055951,"INCLINATION":45.4024,"RA_OF_ASC_NODE":323.7855,"ARG_OF_PERICENTER":216.6928,"MEAN_ANOMALY":143.3571,"EPHEMERIS_TYPE":0,"NORAD_CAT_ID":66301,"ELEMENT_SET_NO":999,"REV_AT_EPOCH":4037,"BSTAR":0.00013082244,"MEAN_MOTION_DOT":0.00001861,"MEAN_MOTION_DDOT":0},{"OBJECT_NAME":"ICEYE-X67","OBJECT_ID":"2025-248K","EPOCH":"2026-07-20T00:40:06.751488","CLASSIFICATION_TYPE":"U","MEAN_MOTION":15.09177741,"ECCENTRICITY":0.00070461,"INCLINATION":45.4072,"RA_OF_ASC_NODE":320.0971,"ARG_OF_PERICENTER":220.1748,"MEAN_ANOMALY":139.8613,"EPHEMERIS_TYPE":0,"NORAD_CAT_ID":66302,"ELEMENT_SET_NO":999,"REV_AT_EPOCH":4048,"BSTAR":0.00011690498,"MEAN_MOTION_DOT":0.00001635,"MEAN_MOTION_DDOT":0},{"OBJECT_NAME":"ICEYE-X58","OBJECT_ID":"2025-276CP","EPOCH":"2026-07-20T02:14:57.688800","CLASSIFICATION_TYPE":"U","MEAN_MOTION":15.17322401,"ECCENTRICITY":0.00026545,"INCLINATION":97.4193,"RA_OF_ASC_NODE":273.8715,"ARG_OF_PERICENTER":192.9707,"MEAN_ANOMALY":167.1459,"EPHEMERIS_TYPE":0,"NORAD_CAT_ID":66751,"ELEMENT_SET_NO":999,"REV_AT_EPOCH":3540,"BSTAR":0.000079533553,"MEAN_MOTION_DOT":0.0000152,"MEAN_MOTION_DDOT":0},{"OBJECT_NAME":"ICEYE-X59","OBJECT_ID":"2025-276CQ","EPOCH":"2026-07-20T03:30:47.587968","CLASSIFICATION_TYPE":"U","MEAN_MOTION":15.00779782,"ECCENTRICITY":0.00012706,"INCLINATION":97.4401,"RA_OF_ASC_NODE":271.0358,"ARG_OF_PERICENTER":130.9521,"MEAN_ANOMALY":229.1814,"EPHEMERIS_TYPE":0,"NORAD_CAT_ID":66752,"ELEMENT_SET_NO":999,"REV_AT_EPOCH":3521,"BSTAR":0.00021783809,"MEAN_MOTION_DOT":0.00002708,"MEAN_MOTION_DDOT":0},{"OBJECT_NAME":"ICEYE-X60","OBJECT_ID":"2025-276CR","EPOCH":"2026-07-19T18:28:39.726336","CLASSIFICATION_TYPE":"U","MEAN_MOTION":15.10668296,"ECCENTRICITY":0.00009859,"INCLINATION":97.4203,"RA_OF_ASC_NODE":272.4701,"ARG_OF_PERICENTER":344.1732,"MEAN_ANOMALY":15.9467,"EPHEMERIS_TYPE":0,"NORAD_CAT_ID":66753,"ELEMENT_SET_NO":999,"REV_AT_EPOCH":3528,"BSTAR":0.00011913217,"MEAN_MOTION_DOT":0.00001909,"MEAN_MOTION_DDOT":0},{"OBJECT_NAME":"ICEYE-X61","OBJECT_ID":"2025-276CS","EPOCH":"2026-07-20T02:35:05.794944","CLASSIFICATION_TYPE":"U","MEAN_MOTION":15.1862536,"ECCENTRICITY":0.00025481,"INCLINATION":97.4188,"RA_OF_ASC_NODE":273.9841,"ARG_OF_PERICENTER":193.689,"MEAN_ANOMALY":166.4276,"EPHEMERIS_TYPE":0,"NORAD_CAT_ID":66754,"ELEMENT_SET_NO":999,"REV_AT_EPOCH":3541,"BSTAR":0.000083366296,"MEAN_MOTION_DOT":0.00001658,"MEAN_MOTION_DDOT":0},{"OBJECT_NAME":"ICEYE-X62","OBJECT_ID":"2025-276CT","EPOCH":"2026-07-20T03:05:08.385792","CLASSIFICATION_TYPE":"U","MEAN_MOTION":15.10174734,"ECCENTRICITY":0.00011501,"INCLINATION":97.4182,"RA_OF_ASC_NODE":272.3058,"ARG_OF_PERICENTER":207.0063,"MEAN_ANOMALY":153.1107,"EPHEMERIS_TYPE":0,"NORAD_CAT_ID":66755,"ELEMENT_SET_NO":999,"REV_AT_EPOCH":3530,"BSTAR":0.00015547531,"MEAN_MOTION_DOT":0.00002476,"MEAN_MOTION_DDOT":0},{"OBJECT_NAME":"ICEYE-X63","OBJECT_ID":"2026-004K","EPOCH":"2026-07-19T22:58:58.486368","CLASSIFICATION_TYPE":"U","MEAN_MOTION":14.88353839,"ECCENTRICITY":0.00050987,"INCLINATION":97.8016,"RA_OF_ASC_NODE":199.0873,"ARG_OF_PERICENTER":39.4699,"MEAN_ANOMALY":320.6888,"EPHEMERIS_TYPE":0,"NORAD_CAT_ID":67372,"ELEMENT_SET_NO":999,"REV_AT_EPOCH":2817,"BSTAR":0.000055588863,"MEAN_MOTION_DOT":0.0000046,"MEAN_MOTION_DDOT":0},{"OBJECT_NAME":"ICEYE-X64","OBJECT_ID":"2026-004L","EPOCH":"2026-07-20T06:38:06.880992","CLASSIFICATION_TYPE":"U","MEAN_MOTION":14.87994242,"ECCENTRICITY":0.00069466,"INCLINATION":97.8031,"RA_OF_ASC_NODE":199.3184,"ARG_OF_PERICENTER":40.0552,"MEAN_ANOMALY":320.1175,"EPHEMERIS_TYPE":0,"NORAD_CAT_ID":67373,"ELEMENT_SET_NO":999,"REV_AT_EPOCH":2821,"BSTAR":0.000078017935,"MEAN_MOTION_DOT":0.00000662,"MEAN_MOTION_DDOT":0},{"OBJECT_NAME":"ICEYE-X71","OBJECT_ID":"2026-067CG","EPOCH":"2026-07-19T20:44:20.882112","CLASSIFICATION_TYPE":"U","MEAN_MOTION":14.91628445,"ECCENTRICITY":0.00007159,"INCLINATION":97.7624,"RA_OF_ASC_NODE":158.5977,"ARG_OF_PERICENTER":301.1917,"MEAN_ANOMALY":58.9231,"EPHEMERIS_TYPE":0,"NORAD_CAT_ID":68494,"ELEMENT_SET_NO":999,"REV_AT_EPOCH":1659,"BSTAR":0.011311619,"MEAN_MOTION_DOT":0.00115397,"MEAN_MOTION_DDOT":0},{"OBJECT_NAME":"ICEYE-X73","OBJECT_ID":"2026-067CJ","EPOCH":"2026-07-19T21:19:10.131744","CLASSIFICATION_TYPE":"U","MEAN_MOTION":14.92360147,"ECCENTRICITY":0.000193,"INCLINATION":97.7625,"RA_OF_ASC_NODE":158.715,"ARG_OF_PERICENTER":140.9134,"MEAN_ANOMALY":219.2225,"EPHEMERIS_TYPE":0,"NORAD_CAT_ID":68496,"ELEMENT_SET_NO":999,"REV_AT_EPOCH":1660,"BSTAR":0.0001345666,"MEAN_MOTION_DOT":0.0000132,"MEAN_MOTION_DDOT":0},{"OBJECT_NAME":"ICEYE-X75","OBJECT_ID":"2026-067CK","EPOCH":"2026-07-19T21:26:25.875456","CLASSIFICATION_TYPE":"U","MEAN_MOTION":14.92179146,"ECCENTRICITY":0.00018229,"INCLINATION":97.7608,"RA_OF_ASC_NODE":158.6847,"ARG_OF_PERICENTER":137.4732,"MEAN_ANOMALY":222.6628,"EPHEMERIS_TYPE":0,"NORAD_CAT_ID":68497,"ELEMENT_SET_NO":999,"REV_AT_EPOCH":1660,"BSTAR":0.000075058776,"MEAN_MOTION_DOT":0.00000708,"MEAN_MOTION_DDOT":0},{"OBJECT_NAME":"ICEYE-X74","OBJECT_ID":"2026-067CN","EPOCH":"2026-07-20T04:43:28.090560","CLASSIFICATION_TYPE":"U","MEAN_MOTION":14.91806046,"ECCENTRICITY":0.00003854,"INCLINATION":97.7635,"RA_OF_ASC_NODE":158.9401,"ARG_OF_PERICENTER":303.0152,"MEAN_ANOMALY":57.103,"EPHEMERIS_TYPE":0,"NORAD_CAT_ID":68500,"ELEMENT_SET_NO":999,"REV_AT_EPOCH":1664,"BSTAR":0.00011461472,"MEAN_MOTION_DOT":0.000011,"MEAN_MOTION_DDOT":0},{"OBJECT_NAME":"ICEYE-X76","OBJECT_ID":"2026-067CQ","EPOCH":"2026-07-19T20:34:49.348704","CLASSIFICATION_TYPE":"U","MEAN_MOTION":14.91755921,"ECCENTRICITY":0.0000404,"INCLINATION":97.7642,"RA_OF_ASC_NODE":158.6239,"ARG_OF_PERICENTER":253.2367,"MEAN_ANOMALY":106.8808,"EPHEMERIS_TYPE":0,"NORAD_CAT_ID":68502,"ELEMENT_SET_NO":999,"REV_AT_EPOCH":1659,"BSTAR":0.000039192488,"MEAN_MOTION_DOT":0.00000339,"MEAN_MOTION_DDOT":0}]}
